[{"OBJECT_NAME":"STARLINK-34034","OBJECT_ID":"2025-098X","EPOCH":"2026-03-09T21:56:11.394528","MEAN_MOTION":14.98325396,"ECCENTRICITY":0.00023333,"INCLINATION":69.9999,"RA_OF_ASC_NODE":273.9861,"ARG_OF_PERICENTER":271.0648,"MEAN_ANOMALY":89.0244,"EPHEMERIS_TYPE":0,"CLASSIFICATION_TYPE":"U","NORAD_CAT_ID":63947,"ELEMENT_SET_NO":999,"REV_AT_EPOCH":4658,"BSTAR":0.00032384776,"MEAN_MOTION_DOT":3.773e-5,"MEAN_MOTION_DDOT":0},{"OBJECT_NAME":"CZ-6A DEB","OBJECT_ID":"2022-151RK","EPOCH":"2026-03-09T04:16:52.342176","MEAN_MOTION":15.00981633,"ECCENTRICITY":0.00383954,"INCLINATION":98.6273,"RA_OF_ASC_NODE":143.4522,"ARG_OF_PERICENTER":188.2396,"MEAN_ANOMALY":171.8199,"EPHEMERIS_TYPE":0,"CLASSIFICATION_TYPE":"U","NORAD_CAT_ID":54922,"ELEMENT_SET_NO":999,"REV_AT_EPOCH":17321,"BSTAR":0.0056092635,"MEAN_MOTION_DOT":0.00073321,"MEAN_MOTION_DDOT":0}]
